start=new Date('2022-04-20T00:00:00.000Z').valueOf();
sats=[{"REV_AT_EPOCH":"5798","INCLINATION":"53.0546","GP_ID":"201634415","FILE":"3408522","EPHEMERIS_TYPE":"0","SITE":"AFETR","RCS_SIZE":"LARGE","TLE_LINE2":"2 48125  53.0546  66.5710 0001768  65.5697 294.5476 15.06405262 57987","NORAD_CAT_ID":"48125","ELEMENT_SET_NO":"999","ECCENTRICITY":"0.00017680","PERIOD":"95.592","MEAN_ELEMENT_THEORY":"SGP4","MEAN_MOTION_DOT":"0.00003170","LAUNCH_DATE":"2021-04-07","MEAN_MOTION_DDOT":"0.0000000000000","MEAN_MOTION":"15.06405262","MEAN_ANOMALY":"294.5476","PERIAPSIS":"545.973","CLASSIFICATION_TYPE":"U","DECAY_DATE":null,"SEMIMAJOR_AXIS":"6925.332","COUNTRY_CODE":"US","CENTER_NAME":"EARTH","OBJECT_ID":"2021-027AK","APOAPSIS":"548.422","TIME_SYSTEM":"UTC","EPOCH":"2022-04-19T14:49:56.879616","BSTAR":"0.00023157000000","ARG_OF_PERICENTER":"65.5697","OBJECT_TYPE":"PAYLOAD","TLE_LINE1":"1 48125U 21027AK  22109.61801944  .00003170  00000-0  23157-3 0  9991","RA_OF_ASC_NODE":"66.5710","OBJECT_NAME":"STARLINK-2466","REF_FRAME":"TEME"},{"PERIOD":"95.591","MEAN_ELEMENT_THEORY":"SGP4","MEAN_MOTION_DOT":"0.00004368","LAUNCH_DATE":"2021-04-07","MEAN_MOTION_DDOT":"0.0000000000000","REV_AT_EPOCH":"5865","INCLINATION":"53.0560","GP_ID":"201627670","SITE":"AFETR","FILE":"3408368","EPHEMERIS_TYPE":"0","RCS_SIZE":"LARGE","NORAD_CAT_ID":"48126","TLE_LINE2":"2 48126  53.0560  46.9590 0001700  66.7224 293.3944 15.06411813 58658","ELEMENT_SET_NO":"999","ECCENTRICITY":"0.00017000","CENTER_NAME":"EARTH","OBJECT_ID":"2021-027AL","APOAPSIS":"548.355","TIME_SYSTEM":"UTC","EPOCH":"2022-04-19T12:41:16.875456","BSTAR":"0.00031183000000","ARG_OF_PERICENTER":"66.7224","TLE_LINE1":"1 48126U 21027AL  22109.52866754  .00004368  00000-0  31183-3 0  9990","RA_OF_ASC_NODE":"46.9590","OBJECT_TYPE":"PAYLOAD","OBJECT_NAME":"STARLINK-2467","REF_FRAME":"TEME","MEAN_MOTION":"15.06411813","MEAN_ANOMALY":"293.3944","PERIAPSIS":"546.000","CLASSIFICATION_TYPE":"U","DECAY_DATE":null,"SEMIMAJOR_AXIS":"6925.312","COUNTRY_CODE":"US"},{"APOAPSIS":"548.500","TIME_SYSTEM":"UTC","OBJECT_ID":"2021-027AM","CENTER_NAME":"EARTH","BSTAR":"0.00021162000000","EPOCH":"2022-04-19T07:41:22.871040","ARG_OF_PERICENTER":"46.3998","REF_FRAME":"TEME","OBJECT_NAME":"STARLINK-2468","RA_OF_ASC_NODE":"67.9097","TLE_LINE1":"1 48127U 21027AM  22109.32040360  .00002872  00000-0  21162-3 0  9990","OBJECT_TYPE":"PAYLOAD","MEAN_ANOMALY":"313.7146","MEAN_MOTION":"15.06401936","PERIAPSIS":"545.915","CLASSIFICATION_TYPE":"U","COUNTRY_CODE":"US","SEMIMAJOR_AXIS":"6925.343","DECAY_DATE":null,"MEAN_ELEMENT_THEORY":"SGP4","PERIOD":"95.592","MEAN_MOTION_DOT":"0.00002872","MEAN_MOTION_DDOT":"0.0000000000000","LAUNCH_DATE":"2021-04-07","REV_AT_EPOCH":"5833","INCLINATION":"53.0554","GP_ID":"201626418","RCS_SIZE":"LARGE","FILE":"3408368","SITE":"AFETR","EPHEMERIS_TYPE":"0","ECCENTRICITY":"0.00018660","NORAD_CAT_ID":"48127","TLE_LINE2":"2 48127  53.0554  67.9097 0001866  46.3998 313.7146 15.06401936 58333","ELEMENT_SET_NO":"999"},{"MEAN_MOTION_DOT":"0.00012258","MEAN_ELEMENT_THEORY":"SGP4","PERIOD":"95.590","MEAN_MOTION_DDOT":"0.0000000000000","LAUNCH_DATE":"2021-04-07","INCLINATION":"53.0552","GP_ID":"201635020","REV_AT_EPOCH":"5897","ECCENTRICITY":"0.00014530","TLE_LINE2":"2 48128  53.0552 356.2524 0001453  81.1845 278.9308 15.06427001 58974","ELEMENT_SET_NO":"999","NORAD_CAT_ID":"48128","RCS_SIZE":"LARGE","FILE":"3408529","EPHEMERIS_TYPE":"0","SITE":"AFETR","BSTAR":"0.00083975000000","EPOCH":"2022-04-19T16:34:46.875648","TIME_SYSTEM":"UTC","APOAPSIS":"548.137","OBJECT_ID":"2021-027AN","CENTER_NAME":"EARTH","REF_FRAME":"TEME","OBJECT_NAME":"STARLINK-2469","TLE_LINE1":"1 48128U 21027AN  22109.69082032  .00012258  00000-0  83975-3 0  9992","OBJECT_TYPE":"PAYLOAD","RA_OF_ASC_NODE":"356.2524","ARG_OF_PERICENTER":"81.1845","PERIAPSIS":"546.125","MEAN_ANOMALY":"278.9308","MEAN_MOTION":"15.06427001","COUNTRY_CODE":"US","SEMIMAJOR_AXIS":"6925.266","DECAY_DATE":null,"CLASSIFICATION_TYPE":"U"},{"DECAY_DATE":null,"COUNTRY_CODE":"US","SEMIMAJOR_AXIS":"6925.339","CLASSIFICATION_TYPE":"U","PERIAPSIS":"546.116","MEAN_MOTION":"15.06403253","MEAN_ANOMALY":"303.6889","OBJECT_NAME":"STARLINK-2471","OBJECT_TYPE":"PAYLOAD","TLE_LINE1":"1 48129U 21027AP  22109.31304350  .00005646  00000-0  39758-3 0  9995","RA_OF_ASC_NODE":"67.9411","REF_FRAME":"TEME","ARG_OF_PERICENTER":"56.4250","BSTAR":"0.00039758000000","EPOCH":"2022-04-19T07:30:46.958400","OBJECT_ID":"2021-027AP","CENTER_NAME":"EARTH","APOAPSIS":"548.292","TIME_SYSTEM":"UTC","TLE_LINE2":"2 48129  53.0546  67.9411 0001571  56.4250 303.6889 15.06403253 58338","NORAD_CAT_ID":"48129","ELEMENT_SET_NO":"999","ECCENTRICITY":"0.00015710","FILE":"3408368","SITE":"AFETR","EPHEMERIS_TYPE":"0","RCS_SIZE":"LARGE","GP_ID":"201627420","INCLINATION":"53.0546","REV_AT_EPOCH":"5833","MEAN_MOTION_DDOT":"0.0000000000000","LAUNCH_DATE":"2021-04-07","MEAN_MOTION_DOT":"0.00005646","PERIOD":"95.592","MEAN_ELEMENT_THEORY":"SGP4"},{"EPOCH":"2022-04-19T08:51:01.003104","BSTAR":"0.00007711600000","APOAPSIS":"548.442","TIME_SYSTEM":"UTC","CENTER_NAME":"EARTH","OBJECT_ID":"2021-027AQ","REF_FRAME":"TEME","OBJECT_TYPE":"PAYLOAD","TLE_LINE1":"1 48130U 21027AQ  22109.36876161  .00000867  00000-0  77116-4 0  9997","RA_OF_ASC_NODE":"72.6874","OBJECT_NAME":"STARLINK-2472","ARG_OF_PERICENTER":"58.4274","PERIAPSIS":"545.974","MEAN_ANOMALY":"301.6888","MEAN_MOTION":"15.06401836","SEMIMAJOR_AXIS":"6925.343","COUNTRY_CODE":"US","DECAY_DATE":null,"CLASSIFICATION_TYPE":"U","MEAN_MOTION_DOT":"0.00000867","MEAN_ELEMENT_THEORY":"SGP4","PERIOD":"95.592","LAUNCH_DATE":"2021-04-07","MEAN_MOTION_DDOT":"0.0000000000000","INCLINATION":"53.0556","GP_ID":"201628171","REV_AT_EPOCH":"5827","ECCENTRICITY":"0.00017820","TLE_LINE2":"2 48130  53.0556  72.6874 0001782  58.4274 301.6888 15.06401836 58274","ELEMENT_SET_NO":"999","NORAD_CAT_ID":"48130","RCS_SIZE":"LARGE","SITE":"AFETR","FILE":"3408368","EPHEMERIS_TYPE":"0"},{"MEAN_MOTION_DDOT":"0.0000000000000","LAUNCH_DATE":"2021-04-07","MEAN_MOTION_DOT":"0.00003439","PERIOD":"95.592","MEAN_ELEMENT_THEORY":"SGP4","TLE_LINE2":"2 48131  53.0545  46.9971 0001571  67.1137 293.0018 15.06395883 58246","ELEMENT_SET_NO":"999","NORAD_CAT_ID":"48131","ECCENTRICITY":"0.00015710","SITE":"AFETR","FILE":"3408551","EPHEMERIS_TYPE":"0","RCS_SIZE":"LARGE","INCLINATION":"53.0545","GP_ID":"201635159","REV_AT_EPOCH":"5824","OBJECT_NAME":"STARLINK-2473","TLE_LINE1":"1 48131U 21027AR  22109.52130124  .00003439  00000-0  24965-3 0  9999","OBJECT_TYPE":"PAYLOAD","RA_OF_ASC_NODE":"46.9971","REF_FRAME":"TEME","ARG_OF_PERICENTER":"67.1137","BSTAR":"0.00024965000000","EPOCH":"2022-04-19T12:30:40.427136","OBJECT_ID":"2021-027AR","CENTER_NAME":"EARTH","TIME_SYSTEM":"UTC","APOAPSIS":"548.314","DECAY_DATE":null,"COUNTRY_CODE":"US","SEMIMAJOR_AXIS":"6925.361","CLASSIFICATION_TYPE":"U","PERIAPSIS":"546.138","MEAN_MOTION":"15.06395883","MEAN_ANOMALY":"293.0018"},{"BSTAR":"-0.00000126970000","EPOCH":"2022-04-19T19:59:09.794400","OBJECT_ID":"2021-027AS","CENTER_NAME":"EARTH","APOAPSIS":"548.416","TIME_SYSTEM":"UTC","OBJECT_NAME":"STARLINK-2474","TLE_LINE1":"1 48132U 21027AS  22109.83275225 -.00000300  00000-0 -12697-5 0  9993","OBJECT_TYPE":"PAYLOAD","RA_OF_ASC_NODE":"65.6136","REF_FRAME":"TEME","ARG_OF_PERICENTER":"65.9081","PERIAPSIS":"546.032","MEAN_MOTION":"15.06396490","MEAN_ANOMALY":"294.2088","DECAY_DATE":null,"COUNTRY_CODE":"US","SEMIMAJOR_AXIS":"6925.359","CLASSIFICATION_TYPE":"U","MEAN_MOTION_DOT":"-0.00000300","PERIOD":"95.592","MEAN_ELEMENT_THEORY":"SGP4","MEAN_MOTION_DDOT":"0.0000000000000","LAUNCH_DATE":"2021-04-07","INCLINATION":"53.0553","GP_ID":"201635760","REV_AT_EPOCH":"5801","TLE_LINE2":"2 48132  53.0553  65.6136 0001721  65.9081 294.2088 15.06396490 58018","ELEMENT_SET_NO":"999","NORAD_CAT_ID":"48132","ECCENTRICITY":"0.00017210","FILE":"3408580","SITE":"AFETR","EPHEMERIS_TYPE":"0","RCS_SIZE":"LARGE"},{"MEAN_MOTION_DDOT":"0.0000000000000","LAUNCH_DATE":"2021-04-07","MEAN_ELEMENT_THEORY":"SGP4","PERIOD":"95.592","MEAN_MOTION_DOT":"0.00003824","RCS_SIZE":"LARGE","SITE":"AFETR","FILE":"3408368","EPHEMERIS_TYPE":"0","ECCENTRICITY":"0.00018710","TLE_LINE2":"2 48133  53.0554  68.6082 0001871  58.4313 301.6858 15.06395747 58319","NORAD_CAT_ID":"48133","ELEMENT_SET_NO":"999","REV_AT_EPOCH":"5831","INCLINATION":"53.0554","GP_ID":"201627921","ARG_OF_PERICENTER":"58.4313","REF_FRAME":"TEME","OBJECT_NAME":"STARLINK-2475","RA_OF_ASC_NODE":"68.6082","TLE_LINE1":"1 48133U 21027AT  22109.16560850  .00003824  00000-0  27554-3 0  9999","OBJECT_TYPE":"PAYLOAD","APOAPSIS":"548.522","TIME_SYSTEM":"UTC","OBJECT_ID":"2021-027AT","CENTER_NAME":"EARTH","BSTAR":"0.00027554000000","EPOCH":"2022-04-19T03:58:28.574400","CLASSIFICATION_TYPE":"U","COUNTRY_CODE":"US","SEMIMAJOR_AXIS":"6925.362","DECAY_DATE":null,"MEAN_ANOMALY":"301.6858","MEAN_MOTION":"15.06395747","PERIAPSIS":"545.931"},{"MEAN_MOTION_DDOT":"0.0000000000000","LAUNCH_DATE":"2021-04-07","MEAN_MOTION_DOT":"0.00004881","PERIOD":"95.592","MEAN_ELEMENT_THEORY":"SGP4","NORAD_CAT_ID":"48134","TLE_LINE2":"2 48134  53.0553  68.0747 0001491  62.6793 297.4347 15.06405780 58323","ELEMENT_SET_NO":"999","ECCENTRICITY":"0.00014910","SITE":"AFETR","FILE":"3408368","EPHEMERIS_TYPE":"0","RCS_SIZE":"LARGE","GP_ID":"201627671","INCLINATION":"53.0553","REV_AT_EPOCH":"5832","OBJECT_NAME":"STARLINK-2476","TLE_LINE1":"1 48134U 21027AU  22109.28355014  .00004881  00000-0  34629-3 0  9992","RA_OF_ASC_NODE":"68.0747","OBJECT_TYPE":"PAYLOAD","REF_FRAME":"TEME","ARG_OF_PERICENTER":"62.6793","BSTAR":"0.00034629000000","EPOCH":"2022-04-19T06:48:18.732096","OBJECT_ID":"2021-027AU","CENTER_NAME":"EARTH","TIME_SYSTEM":"UTC","APOAPSIS":"548.228","DECAY_DATE":null,"COUNTRY_CODE":"US","SEMIMAJOR_AXIS":"6925.331","CLASSIFICATION_TYPE":"U","PERIAPSIS":"546.163","MEAN_MOTION":"15.06405780","MEAN_ANOMALY":"297.4347"}];
